NORAD_CAT_ID,OBJECT_NAME,OBJECT_TYPE,EPOCH,MEAN_MOTION,ECCENTRICITY,INCLINATION,RA_OF_ASC_NODE,ARG_OF_PERICENTER,MEAN_ANOMALY,BSTAR,MEAN_MOTION_DOT,MEAN_MOTION_DDOT,TLE_LINE0,TLE_LINE1,TLE_LINE2,SEMIMAJOR_AXIS,PERIOD,APOGEE,PERIGEE,DECAYED
51866.0,STARLINK-3553,PAYLOAD,2023-03-24 11:21:39,15.08880602,0.0001839,53.2165,182.8917,74.0474,286.072,0.00076029,0.00011846,0.0,0 STARLINK-3553,1 51866U 22022Q   23083.47337305  .00011846  00000-0  76029-3 0  9999,2 51866  53.2165 182.8917 0001839  74.0474 286.0720 15.08880602 59886,6917.756,95.435,540.893,538.349,0.0
51866.0,STARLINK-3553,PAYLOAD,2023-03-24 12:57:01,15.08903218,0.0001188,53.2161,182.5917,107.2391,252.8731,0.0010414,0.00016353,0.0,0 STARLINK-3553,1 51866U 22022Q   23083.53959755  .00016353  00000-0  10414-2 0  9998,2 51866  53.2161 182.5917 0001188 107.2391 252.8731 15.08903218 59896,6917.687,95.434,540.374,538.73,0.0
51866.0,STARLINK-3553,PAYLOAD,2023-03-24 16:07:46,15.08910501,0.0001113,53.2162,181.997,105.0191,255.0924,0.0011247,0.00017691,0.0,0 STARLINK-3553,1 51866U 22022Q   23083.67207086  .00017691  00000-0  11247-2 0  9997,2 51866  53.2162 181.9970 0001113 105.0191 255.0924 15.08910501 59916,6917.665,95.433,540.3,538.76,0.0
51866.0,STARLINK-3553,PAYLOAD,2023-03-25 00:04:44,15.08850167,0.0001874,53.2154,180.5137,64.9188,295.1999,-8.1957e-05,-1.593e-05,0.0,0 STARLINK-3553,1 51866U 22022Q   23084.00329181 -.00001593  00000-0 -81957-4 0  9999,2 51866  53.2154 180.5137 0001874  64.9188 295.1999 15.08850167 59963,6917.849,95.437,541.011,538.418,0.0
51866.0,STARLINK-3553,PAYLOAD,2023-03-25 12:47:53,15.08757418,0.0001412,53.2154,178.1345,72.1444,287.9702,-0.0015551,-0.00024896,0.0,0 STARLINK-3553,1 51866U 22022Q   23084.53326108 -.00024896  00000-0 -15551-2 0  9999,2 51866  53.2154 178.1345 0001412  72.1444 287.9702 15.08757418 60048,6918.133,95.443,540.975,539.021,0.0
51866.0,STARLINK-3553,PAYLOAD,2023-03-25 17:34:03,15.08766849,0.0001158,53.215,177.2402,89.7318,270.3807,-0.0012142,-0.00019521,0.0,0 STARLINK-3553,1 51866U 22022Q   23084.73198597 -.00019521  00000-0 -12142-2 0  9992,2 51866  53.2150 177.2402 0001158  89.7318 270.3807 15.08766849 60072,6918.104,95.442,540.77,539.168,0.0
51866.0,STARLINK-3553,PAYLOAD,2023-03-26 12:38:39,15.08850926,0.0001421,53.2165,173.6728,97.7369,262.3784,0.00061105,9.453e-05,0.0,0 STARLINK-3553,1 51866U 22022Q   23085.52684878  .00009453  00000-0  61105-3 0  9997,2 51866  53.2165 173.6728 0001421  97.7369 262.3784 15.08850926 60195,6917.847,95.437,540.695,538.729,0.0
51866.0,STARLINK-3553,PAYLOAD,2023-03-26 17:24:48,15.08858753,0.0001389,53.2165,172.7738,107.0533,253.0611,0.00092766,0.00014514,0.0,0 STARLINK-3553,1 51866U 22022Q   23085.72556606  .00014514  00000-0  92766-3 0  9997,2 51866  53.2165 172.7738 0001389 107.0533 253.0611 15.08858753 60223,6917.823,95.436,540.649,538.727,0.0
51866.0,STARLINK-3553,PAYLOAD,2023-03-27 12:29:27,15.08847512,0.000154,53.2159,169.2074,96.0371,264.0796,0.00081241,0.00012668,0.0,0 STARLINK-3553,1 51866U 22022Q   23086.52045570  .00012668  00000-0  81241-3 0  9993,2 51866  53.2159 169.2074 0001540  96.0371 264.0796 15.08847512 60346,6917.857,95.437,540.788,538.657,0.0
51866.0,STARLINK-3553,PAYLOAD,2023-03-27 17:15:35,15.08869766,0.0001243,53.2155,168.3159,105.1476,254.9654,0.00092675,0.00014504,0.0,0 STARLINK-3553,1 51866U 22022Q   23086.71916532  .00014504  00000-0  92675-3 0  9993,2 51866  53.2155 168.3159 0001243 105.1476 254.9654 15.08869766 60373,6917.789,95.436,540.514,538.795,0.0
51866.0,STARLINK-3553,PAYLOAD,2023-03-27 22:01:46,15.08830616,0.0001309,53.2155,167.4256,97.8858,262.2283,-0.0001032,-1.929e-05,0.0,0 STARLINK-3553,1 51866U 22022Q   23086.91789725 -.00001929  00000-0 -10320-3 0  9993,2 51866  53.2155 167.4256 0001309  97.8858 262.2283 15.08830616 60401,6917.909,95.438,540.68,538.869,0.0
51866.0,STARLINK-3553,PAYLOAD,2023-03-28 10:44:50,15.08849396,0.0001407,53.216,165.0446,90.0282,270.0872,-0.00021865,-3.767e-05,0.0,0 STARLINK-3553,1 51866U 22022Q   23087.44780162 -.00003767  00000-0 -21865-3 0  9996,2 51866  53.2160 165.0446 0001407  90.0282 270.0872 15.08849396 60481,6917.852,95.437,540.69,538.743,0.0
51866.0,STARLINK-3553,PAYLOAD,2023-03-28 15:30:59,15.08855215,0.000154,53.2157,164.1489,82.2831,277.8336,-1.3955e-05,-5.1e-06,0.0,0 STARLINK-3553,1 51866U 22022Q   23087.64652049 -.00000510  00000-0 -13955-4 0  9995,2 51866  53.2157 164.1489 0001540  82.2831 277.8336 15.08855215 60516,6917.834,95.437,540.764,538.634,0.0
51866.0,STARLINK-3553,PAYLOAD,2023-03-29 12:11:00,15.08848709,0.0001554,53.2159,160.2908,85.5729,274.544,-4.1265e-06,-3.54e-06,0.0,0 STARLINK-3553,1 51866U 22022Q   23088.50763957 -.00000354  00000-0 -41265-5 0  9994,2 51866  53.2159 160.2908 0001554  85.5729 274.5440 15.08848709 60642,6917.854,95.437,540.794,538.644,0.0
51866.0,STARLINK-3553,PAYLOAD,2023-03-29 21:43:19,15.08827411,4.43e-05,53.2153,158.5069,121.6569,238.4466,-0.00038805,-6.456e-05,0.0,0 STARLINK-3553,1 51866U 22022Q   23088.90508170 -.00006456  00000-0 -38805-3 0  9995,2 51866  53.2153 158.5069 0000443 121.6569 238.4466 15.08827411 60705,6917.919,95.438,540.09,539.477,0.0
51866.0,STARLINK-3553,PAYLOAD,2023-03-30 10:26:24,15.08840968,0.0001299,53.2139,156.1265,94.3734,265.7406,0.00013417,1.848e-05,0.0,0 STARLINK-3553,1 51866U 22022Q   23089.43500423  .00001848  00000-0  13417-3 0  9997,2 51866  53.2139 156.1265 0001299  94.3734 265.7406 15.08840968 60788,6917.877,95.437,540.641,538.844,0.0
51866.0,STARLINK-3553,PAYLOAD,2023-03-30 12:01:47,15.08840243,0.0001674,53.2153,155.8299,87.0373,273.0811,0.00031913,4.795e-05,0.0,0 STARLINK-3553,1 51866U 22022Q   23089.50124650  .00004795  00000-0  31913-3 0  9994,2 51866  53.2153 155.8299 0001674  87.0373 273.0811 15.08840243 60791,6917.88,95.438,540.903,538.587,0.0
51866.0,STARLINK-3553,PAYLOAD,2023-04-01 03:46:26,15.0882893,0.0001535,53.2152,148.3962,86.5409,273.5759,-0.00017526,-3.075e-05,0.0,0 STARLINK-3553,1 51866U 22022Q   23091.15725109 -.00003075  00000-0 -17526-3 0  9990,2 51866  53.2152 148.3962 0001535  86.5409 273.5759 15.08828930 61048,6917.914,95.438,540.841,538.717,0.0
51866.0,STARLINK-3553,PAYLOAD,2023-04-01 08:32:36,15.08831372,0.000186,53.2154,147.5054,74.126,285.9937,-2.1398e-05,-6.29e-06,0.0,0 STARLINK-3553,1 51866U 22022Q   23091.35597305 -.00000629  00000-0 -21398-4 0  9992,2 51866  53.2154 147.5054 0001860  74.1260 285.9937 15.08831372 61074,6917.907,95.438,541.058,538.485,0.0
51866.0,STARLINK-3553,PAYLOAD,2023-04-02 06:47:59,15.0884603,0.0001687,53.2165,143.3388,102.97,257.148,0.00055205,8.51e-05,0.0,0 STARLINK-3553,1 51866U 22022Q   23092.28333178  .00008510  00000-0  55205-3 0  9999,2 51866  53.2165 143.3388 0001687 102.9700 257.1480 15.08846030 61213,6917.862,95.437,540.894,538.56,0.0
51866.0,STARLINK-3553,PAYLOAD,2023-04-02 13:09:32,15.08858861,0.0001592,53.2153,142.1494,83.4759,276.6414,0.0008954,0.00013998,0.0,0 STARLINK-3553,1 51866U 22022Q   23092.54828992  .00013998  00000-0  89540-3 0  9996,2 51866  53.2153 142.1494 0001592  83.4759 276.6414 15.08858861 61259,6917.823,95.436,540.789,538.586,0.0
51866.0,STARLINK-3553,PAYLOAD,2023-04-03 03:28:00,15.08849525,0.0001759,53.2139,139.4695,111.4548,248.6632,0.00041324,6.296e-05,0.0,0 STARLINK-3553,1 51866U 22022Q   23093.14444902  .00006296  00000-0  41324-3 0  9999,2 51866  53.2139 139.4695 0001759 111.4548 248.6632 15.08849525 61346,6917.851,95.437,540.933,538.499,0.0
51866.0,STARLINK-3553,PAYLOAD,2023-04-03 11:24:56,15.08846771,0.0001583,53.2158,137.9869,93.7956,266.3217,0.00022895,3.358e-05,0.0,0 STARLINK-3553,1 51866U 22022Q   23093.47565001  .00003358  00000-0  22895-3 0  9997,2 51866  53.2158 137.9869 0001583  93.7956 266.3217 15.08846771 61394,6917.86,95.437,540.82,538.63,0.0
51866.0,STARLINK-3553,PAYLOAD,2023-04-03 19:21:51,15.08846357,0.0001577,53.216,136.4993,83.5369,276.5803,0.00022233,3.253e-05,0.0,0 STARLINK-3553,1 51866U 22022Q   23093.80684928  .00003253  00000-0  22233-3 0  9994,2 51866  53.2160 136.4993 0001577  83.5369 276.5803 15.08846357 61447,6917.861,95.437,540.817,538.635,0.0
51866.0,STARLINK-3553,PAYLOAD,2023-04-04 11:15:42,15.08852845,0.0001584,53.215,133.5257,88.9852,271.1321,0.00054165,8.346e-05,0.0,0 STARLINK-3553,1 51866U 22022Q   23094.46924626  .00008346  00000-0  54165-3 0  9996,2 51866  53.2150 133.5257 0001584  88.9852 271.1321 15.08852845 61547,6917.841,95.437,540.802,538.61,0.0
51866.0,STARLINK-3553,PAYLOAD,2023-04-05 04:44:57,15.08837747,0.0001413,53.2145,130.2537,104.0816,256.0333,-1.7414e-06,-3.16e-06,0.0,0 STARLINK-3553,1 51866U 22022Q   23095.19788997 -.00000316  00000-0 -17414-5 0  9995,2 51866  53.2145 130.2537 0001413 104.0816 256.0333 15.08837747 61658,6917.887,95.438,540.73,538.775,0.0
51866.0,STARLINK-3553,PAYLOAD,2023-04-05 11:06:30,15.08838291,0.0001404,53.2148,129.0654,104.1783,255.9365,-9.9662e-05,-1.874e-05,0.0,0 STARLINK-3553,1 51866U 22022Q   23095.46284987 -.00001874  00000-0 -99662-4 0  9999,2 51866  53.2148 129.0654 0001404 104.1783 255.9365 15.08838291 61693,6917.886,95.438,540.722,538.779,0.0
51866.0,STARLINK-3553,PAYLOAD,2023-04-06 07:46:31,15.08840824,0.0001372,53.2143,125.1991,98.0685,262.0463,9.8798e-05,1.285e-05,0.0,0 STARLINK-3553,1 51866U 22022Q   23096.32397147  .00001285  00000-0  98798-4 0  9991,2 51866  53.2143 125.1991 0001372  98.0685 262.0463 15.08840824 61823,6917.878,95.438,540.692,538.794,0.0
51866.0,STARLINK-3553,PAYLOAD,2023-04-06 10:57:17,15.08843059,0.0001326,53.2139,124.6041,92.1373,267.9771,0.00015731,2.217e-05,0.0,0 STARLINK-3553,1 51866U 22022Q   23096.45645092  .00002217  00000-0  15731-3 0  9991,2 51866  53.2139 124.6041 0001326  92.1373 267.9771 15.08843059 61847,6917.871,95.437,540.653,538.819,0.0
51866.0,STARLINK-3553,PAYLOAD,2023-04-06 14:08:03,15.08845943,0.0001468,53.2141,124.0097,98.7356,261.3802,0.00023868,3.513e-05,0.0,0 STARLINK-3553,1 51866U 22022Q   23096.58892985  .00003513  00000-0  23868-3 0  9990,2 51866  53.2141 124.0097 0001468  98.7356 261.3802 15.08845943 61864,6917.862,95.437,540.743,538.712,0.0
